10684,NAVSTAR 1 (OPS 5111),1978,727.01,-1.0,-,64.04,Inactive,0,MEO,USA,USA,Unknown,Unknown,Unknown,1 10684U 78020A   25102.26812932 -.00000031  00000+0  00000+0 0  9992,2 10684  64.0353  65.2729 0080519 217.5589 141.8469  1.98072536327908,1.98072536,0.0080519,MEO
11141,NAVSTAR 4 (OPS 5114),1978,746.52,-1.0,-,63.42,Inactive,0,MEO,USA,USA,Unknown,Unknown,Unknown,1 11141U 78112A   25102.48708360  .00000016  00000+0  00000+0 0  9998,2 11141  63.4210  84.5154 0140018  48.3645 111.8200  1.92895673220789,1.92895673,0.0140018,MEO
19802,NAVSTAR 13 (USA 35),1989,777.01,-1.0,-,54.76,Inactive,0,MEO,USA,USA,Unknown,Unknown,Unknown,1 19802U 89013A   25102.16947242  .00000050  00000+0  00000+0 0  9999,2 19802  54.7600 109.1665 0042765 241.3742 219.9966  1.85325481250285,1.85325481,0.0042765,MEO
11783,NAVSTAR 6 (OPS 5118),1980,707.77,-1.0,-,62.04,Inactive,0,MEO,USA,USA,Unknown,Unknown,Unknown,1 11783U 80032A   25101.67949334 -.00000022  00000+0  00000+0 0  9990,2 11783  62.0406 263.1243 0544009  53.1427 124.6108  2.03456376332977,2.03456376,0.0544009,MEO
20061,NAVSTAR 14 (USA 38),1989,762.48,-1.0,-,53.55,Inactive,0,MEO,USA,USA,Unknown,Unknown,Unknown,1 20061U 89044A   25102.34034721 -.00000038  00000+0  00000+0 0  9998,2 20061  53.5508 255.3733 0025588 199.9011 139.3365  1.88858622253641,1.88858622,0.0025588,MEO
20185,NAVSTAR 15 (USA 42),1989,773.83,-1.0,-,54.68,Inactive,0,MEO,USA,USA,Unknown,Unknown,Unknown,1 20185U 89064A   25103.10733559  .00000036  00000+0  00000+0 0  9994,2 20185  54.6761 104.0609 0012646 312.6032 102.2977  1.86088191248197,1.86088191,0.0012646,MEO
15039,NAVSTAR 9 (USA 1),1984,748.82,-1.0,-,63.27,Inactive,0,MEO,USA,USA,Unknown,Unknown,Unknown,1 15039U 84059A   25102.41362652 -.00000004  00000+0  00000+0 0  9996,2 15039  63.2701  76.7253 0234844  51.8942  31.3717  1.92302805289846,1.92302805,0.0234844,MEO
15271,NAVSTAR 10 (USA 5),1984,747.59,-1.0,-,62.48,Inactive,0,MEO,USA,USA,Unknown,Unknown,Unknown,1 15271U 84097A   25102.78611211 -.00000033  00000+0  00000+0 0  9996,2 15271  62.4802 303.9199 0145184 227.5611 129.1836  1.92619092288020,1.92619092,0.0145184,MEO
