[
    {
        "OBJECT_NAME": "NAVSTAR 1 (OPS 5111)",
        "OBJECT_ID": "1978-020A",
        "EPOCH": "2025-04-12T06:26:06.373248",
        "MEAN_MOTION": 1.98072536,
        "ECCENTRICITY": 0.0080519,
        "INCLINATION": 64.0353,
        "RA_OF_ASC_NODE": 65.2729,
        "ARG_OF_PERICENTER": 217.5589,
        "MEAN_ANOMALY": 141.8469,
        "EPHEMERIS_TYPE": 0,
        "CLASSIFICATION_TYPE": "U",
        "NORAD_CAT_ID": 10684,
        "ELEMENT_SET_NO": 999,
        "REV_AT_EPOCH": 32790,
        "BSTAR": 0,
        "MEAN_MOTION_DOT": -3.1e-07,
        "MEAN_MOTION_DDOT": 0
    },
    {
        "OBJECT_NAME": "NAVSTAR 4 (OPS 5114)",
        "OBJECT_ID": "1978-112A",
        "EPOCH": "2025-04-12T11:41:24.023040",
        "MEAN_MOTION": 1.92895673,
        "ECCENTRICITY": 0.0140018,
        "INCLINATION": 63.421,
        "RA_OF_ASC_NODE": 84.5154,
        "ARG_OF_PERICENTER": 48.3645,
        "MEAN_ANOMALY": 111.82,
        "EPHEMERIS_TYPE": 0,
        "CLASSIFICATION_TYPE": "U",
        "NORAD_CAT_ID": 11141,
        "ELEMENT_SET_NO": 999,
        "REV_AT_EPOCH": 22078,
        "BSTAR": 0,
        "MEAN_MOTION_DOT": 1.6e-07,
        "MEAN_MOTION_DDOT": 0
    },
    {
        "OBJECT_NAME": "NAVSTAR 6 (OPS 5118)",
        "OBJECT_ID": "1980-032A",
        "EPOCH": "2025-04-11T16:18:28.224576",
        "MEAN_MOTION": 2.03456376,
        "ECCENTRICITY": 0.0544009,
        "INCLINATION": 62.0406,
        "RA_OF_ASC_NODE": 263.1243,
        "ARG_OF_PERICENTER": 53.1427,
        "MEAN_ANOMALY": 124.6108,
        "EPHEMERIS_TYPE": 0,
        "CLASSIFICATION_TYPE": "U",
        "NORAD_CAT_ID": 11783,
        "ELEMENT_SET_NO": 999,
        "REV_AT_EPOCH": 33297,
        "BSTAR": 0,
        "MEAN_MOTION_DOT": -2.2e-07,
        "MEAN_MOTION_DDOT": 0
    },
    {
        "OBJECT_NAME": "NAVSTAR 9 (USA 1)",
        "OBJECT_ID": "1984-059A",
        "EPOCH": "2025-04-12T09:55:37.331328",
        "MEAN_MOTION": 1.92302805,
        "ECCENTRICITY": 0.0234844,
        "INCLINATION": 63.2701,
        "RA_OF_ASC_NODE": 76.7253,
        "ARG_OF_PERICENTER": 51.8942,
        "MEAN_ANOMALY": 31.3717,
        "EPHEMERIS_TYPE": 0,
        "CLASSIFICATION_TYPE": "U",
        "NORAD_CAT_ID": 15039,
        "ELEMENT_SET_NO": 999,
        "REV_AT_EPOCH": 28984,
        "BSTAR": 0,
        "MEAN_MOTION_DOT": -4e-08,
        "MEAN_MOTION_DDOT": 0
    },
    {
        "OBJECT_NAME": "NAVSTAR 10 (USA 5)",
        "OBJECT_ID": "1984-097A",
        "EPOCH": "2025-04-12T18:52:00.086304",
        "MEAN_MOTION": 1.92619092,
        "ECCENTRICITY": 0.0145184,
        "INCLINATION": 62.4802,
        "RA_OF_ASC_NODE": 303.9199,
        "ARG_OF_PERICENTER": 227.5611,
        "MEAN_ANOMALY": 129.1836,
        "EPHEMERIS_TYPE": 0,
        "CLASSIFICATION_TYPE": "U",
        "NORAD_CAT_ID": 15271,
        "ELEMENT_SET_NO": 999,
        "REV_AT_EPOCH": 28802,
        "BSTAR": 0,
        "MEAN_MOTION_DOT": -3.3e-07,
        "MEAN_MOTION_DDOT": 0
    },
    {
        "OBJECT_NAME": "NAVSTAR 13 (USA 35)",
        "OBJECT_ID": "1989-013A",
        "EPOCH": "2025-04-12T04:04:02.417088",
        "MEAN_MOTION": 1.85325481,
        "ECCENTRICITY": 0.0042765,
        "INCLINATION": 54.76,
        "RA_OF_ASC_NODE": 109.1665,
        "ARG_OF_PERICENTER": 241.3742,
        "MEAN_ANOMALY": 219.9966,
        "EPHEMERIS_TYPE": 0,
        "CLASSIFICATION_TYPE": "U",
        "NORAD_CAT_ID": 19802,
        "ELEMENT_SET_NO": 999,
        "REV_AT_EPOCH": 25028,
        "BSTAR": 0,
        "MEAN_MOTION_DOT": 5e-07,
        "MEAN_MOTION_DDOT": 0
    },
    {
        "OBJECT_NAME": "NAVSTAR 14 (USA 38)",
        "OBJECT_ID": "1989-044A",
        "EPOCH": "2025-04-12T08:10:05.998944",
        "MEAN_MOTION": 1.88858622,
        "ECCENTRICITY": 0.0025588,
        "INCLINATION": 53.5508,
        "RA_OF_ASC_NODE": 255.3733,
        "ARG_OF_PERICENTER": 199.9011,
        "MEAN_ANOMALY": 139.3365,
        "EPHEMERIS_TYPE": 0,
        "CLASSIFICATION_TYPE": "U",
        "NORAD_CAT_ID": 20061,
        "ELEMENT_SET_NO": 999,
        "REV_AT_EPOCH": 25364,
        "BSTAR": 0,
        "MEAN_MOTION_DOT": -3.8e-07,
        "MEAN_MOTION_DDOT": 0
    },
    {
        "OBJECT_NAME": "NAVSTAR 15 (USA 42)",
        "OBJECT_ID": "1989-064A",
        "EPOCH": "2025-04-13T02:34:33.794976",
        "MEAN_MOTION": 1.86088191,
        "ECCENTRICITY": 0.0012646,
        "INCLINATION": 54.6761,
        "RA_OF_ASC_NODE": 104.0609,
        "ARG_OF_PERICENTER": 312.6032,
        "MEAN_ANOMALY": 102.2977,
        "EPHEMERIS_TYPE": 0,
        "CLASSIFICATION_TYPE": "U",
        "NORAD_CAT_ID": 20185,
        "ELEMENT_SET_NO": 999,
        "REV_AT_EPOCH": 24820,
        "BSTAR": 0,
        "MEAN_MOTION_DOT": 3.6e-07,
        "MEAN_MOTION_DDOT": 0
    }
]